[{"OBJECT_NAME":"KUZGTU 1 (RS47S)","OBJECT_ID":"2023-091AV","EPOCH":"2026-03-09T22:22:51.965760","MEAN_MOTION":15.27481352,"ECCENTRICITY":0.0012896,"INCLINATION":97.5178,"RA_OF_ASC_NODE":132.5224,"ARG_OF_PERICENTER":89.3666,"MEAN_ANOMALY":270.9051,"EPHEMERIS_TYPE":0,"CLASSIFICATION_TYPE":"U","NORAD_CAT_ID":57217,"ELEMENT_SET_NO":999,"REV_AT_EPOCH":14921,"BSTAR":0.00057711473,"MEAN_MOTION_DOT":0.00015496,"MEAN_MOTION_DDOT":0},{"OBJECT_NAME":"STARLINK-31979","OBJECT_ID":"2024-107V","EPOCH":"2026-03-09T09:58:48.257184","MEAN_MOTION":15.30195169,"ECCENTRICITY":0.00012876,"INCLINATION":53.1614,"RA_OF_ASC_NODE":66.8623,"ARG_OF_PERICENTER":83.2494,"MEAN_ANOMALY":276.8654,"EPHEMERIS_TYPE":0,"CLASSIFICATION_TYPE":"U","NORAD_CAT_ID":59964,"ELEMENT_SET_NO":999,"REV_AT_EPOCH":9970,"BSTAR":2.3340647e-5,"MEAN_MOTION_DOT":3.32e-6,"MEAN_MOTION_DDOT":0}]
